OBJECT_NAME,OBJECT_ID,EPOCH,MEAN_MOTION,ECCENTRICITY,INCLINATION,RA_OF_ASC_NODE,ARG_OF_PERICENTER,MEAN_ANOMALY,EPHEMERIS_TYPE,CLASSIFICATION_TYPE,NORAD_CAT_ID,ELEMENT_SET_NO,REV_AT_EPOCH,BSTAR,MEAN_MOTION_DOT,MEAN_MOTION_DDOT
IONOSFERA-M 2,2024-199B,2026-07-21T14:48:55.725696,14.22763327,.00007534,98.7125,75.3290,130.9498,229.1745,0,U,61736,999,13572,.24342329E-4,.11E-6,0
PRSC-EO1,2025-012A,2026-07-21T14:36:21.265344,15.17672016,.00071917,97.4208,274.3924,128.6797,231.5081,0,U,62725,999,8341,.29264957E-3,.5832E-4,0
BIOMASS,2025-090A,2026-07-21T11:14:17.661408,14.67532848,.00012389,98.0768,29.2819,89.5342,270.6005,0,U,63772,999,6571,.9356888E-4,.483E-5,0
GOSAT-GW (IBUKI GW),2025-141A,2026-07-21T14:55:22.276704,14.67555026,.00014454,98.0564,139.3793,85.2628,274.8742,0,U,64694,999,5689,.10658125E-4,.13E-6,0
IONOSFERA-M 3,2025-155A,2026-07-21T14:17:27.787200,14.21491607,.00024413,98.6045,163.6382,102.7633,257.3818,0,U,64876,999,5129,.34514847E-4,.33E-6,0
IONOSFERA-M 4,2025-155B,2026-07-21T15:07:32.957184,14.21494035,.0001896,98.6044,163.5892,92.9336,267.2059,0,U,64877,999,5129,.38430672E-4,.41E-6,0
MICROCARB,2025-156A,2026-07-21T04:32:15.664416,14.72889645,.00180607,98.0069,278.8068,152.2300,207.9876,0,U,64899,999,5297,.66720589E-4,.378E-5,0
CO3D 3,2025-156B,2026-07-21T11:33:04.755456,15.20203620,.00017174,97.4330,280.6815,89.9636,270.1796,0,U,64900,999,5474,.16197317E-3,.3441E-4,0
CO3D 4,2025-156C,2026-07-21T13:08:05.338464,15.20200432,.0002021,97.4332,280.7465,141.2886,218.8494,0,U,64901,999,5475,.16468133E-3,.3499E-4,0
CO3D 2,2025-156D,2026-07-21T12:20:03.926976,15.20209379,.00011861,97.4332,280.6124,92.6399,267.4972,0,U,64902,999,5474,.15663954E-3,.3326E-4,0
CO3D 1,2025-156E,2026-07-21T13:55:04.162656,15.20212292,.00013505,97.4333,280.6775,101.9527,258.1860,0,U,64903,999,5475,.1675417E-3,.3562E-4,0
PRSC-S1,2025-164A,2026-07-21T16:04:02.996832,15.06673469,.00075773,41.1303,93.5707,236.6599,123.3490,0,U,65055,999,5363,.27291147E-3,.3948E-4,0
SENTINEL-6B,2025-264A,2026-07-21T14:17:21.945696,12.80930290,.00078358,66.0410,63.7128,268.4890,91.5227,0,U,66514,999,3157,-.14921963E-4,-.64E-6,0
CAS500-3,2025-274F,2026-07-21T08:49:37.032672,14.88393466,.000576,97.7433,129.6414,20.6360,339.5088,0,U,66655,999,3523,.98884723E-4,.863E-5,0
CSG-3,2026-001A,2026-07-21T02:08:37.871808,14.82165988,.00014673,97.8899,25.2020,92.6921,267.4460,0,U,67304,999,2948,.32426469E-4,.206E-5,0
PRSC-E03,2026-092A,2026-07-21T12:24:19.773792,15.06825888,.00049658,38.0002,247.2204,289.8271,70.1955,0,U,68835,999,1313,.95515923E-4,.1341E-4,0
CAS500-2,2026-100AK,2026-07-20T17:05:52.503936,15.19760392,.00081268,97.3850,98.9199,230.8249,129.2264,0,U,69013,999,1190,.15845192E-3,.3323E-4,0
