IONOSFERA-M 2           
1 61736U 24199B   26202.61731164  .00000011  00000+0  24342-4 0  9999
2 61736  98.7125  75.3290 0000753 130.9498 229.1745 14.22763327135727
PRSC-EO1                
1 62725U 25012A   26202.60857946  .00005832  00000+0  29265-3 0  9993
2 62725  97.4208 274.3924 0007191 128.6797 231.5081 15.17672016 83415
BIOMASS                 
1 63772U 25090A   26202.46825997  .00000483  00000+0  93569-4 0  9993
2 63772  98.0768  29.2819 0001238  89.5342 270.6005 14.67532848 65718
GOSAT-GW (IBUKI GW)     
1 64694U 25141A   26202.62178561  .00000013  00000+0  10658-4 0  9997
2 64694  98.0564 139.3793 0001445  85.2628 274.8742 14.67555026 56896
IONOSFERA-M 3           
1 64876U 25155A   26202.59546050  .00000033  00000+0  34515-4 0  9992
2 64876  98.6045 163.6382 0002441 102.7633 257.3818 14.21491607 51293
IONOSFERA-M 4           
1 64877U 25155B   26202.63024256  .00000041  00000+0  38431-4 0  9997
2 64877  98.6044 163.5892 0001896  92.9336 267.2059 14.21494035 51296
MICROCARB               
1 64899U 25156A   26202.18907019  .00000378  00000+0  66721-4 0  9995
2 64899  98.0069 278.8068 0018060 152.2300 207.9876 14.72889645 52973
CO3D 3                  
1 64900U 25156B   26202.48130504  .00003441  00000+0  16197-3 0  9993
2 64900  97.4330 280.6815 0001717  89.9636 270.1796 15.20203620 54747
CO3D 4                  
1 64901U 25156C   26202.54728401  .00003499  00000+0  16468-3 0  9994
2 64901  97.4332 280.7465 0002021 141.2886 218.8494 15.20200432 54753
CO3D 2                  
1 64902U 25156D   26202.51393434  .00003326  00000+0  15664-3 0  9992
2 64902  97.4332 280.6124 0001186  92.6399 267.4972 15.20209379 54743
CO3D 1                  
1 64903U 25156E   26202.57990929  .00003562  00000+0  16754-3 0  9994
2 64903  97.4333 280.6775 0001350 101.9527 258.1860 15.20212292 54759
PRSC-S1                 
1 65055U 25164A   26202.66947913  .00003948  00000+0  27291-3 0  9993
2 65055  41.1303  93.5707 0007577 236.6599 123.3490 15.06673469 53638
SENTINEL-6B             
1 66514U 25264A   26202.59539289 -.00000064  00000+0 -14922-4 0  9996
2 66514  66.0410  63.7128 0007835 268.4890  91.5227 12.80930290 31574
CAS500-3                
1 66655U 25274F   26202.36778973  .00000863  00000+0  98885-4 0  9998
2 66655  97.7433 129.6414 0005760  20.6360 339.5088 14.88393466 35236
CSG-3                   
1 67304U 26001A   26202.08932722  .00000206  00000+0  32426-4 0  9992
2 67304  97.8899  25.2020 0001467  92.6921 267.4460 14.82165988 29484
PRSC-E03                
1 68835U 26092A   26202.51689553  .00001341  00000+0  95516-4 0  9991
2 68835  38.0002 247.2204 0004965 289.8271  70.1955 15.06825888 13133
CAS500-2                
1 69013U 26100AK  26201.71241324  .00003323  00000+0  15845-3 0  9999
2 69013  97.3850  98.9199 0008126 230.8249 129.2264 15.19760392 11903
